OBJECT_NAME,OBJECT_ID,EPOCH,MEAN_MOTION,ECCENTRICITY,INCLINATION,RA_OF_ASC_NODE,ARG_OF_PERICENTER,MEAN_ANOMALY,EPHEMERIS_TYPE,CLASSIFICATION_TYPE,NORAD_CAT_ID,ELEMENT_SET_NO,REV_AT_EPOCH,BSTAR,MEAN_MOTION_DOT,MEAN_MOTION_DDOT
QIANFAN-181,2026-124S,2026-06-10T21:57:39.253824,14.21669897,.00026846,88.9982,2.7542,126.0200,234.1240,0,U,69398,999,92,-.93060969E+0,-.1897081E-1,0
QIANFAN-182,2026-124T,2026-06-10T21:56:00.974688,14.22145649,.0000853,88.9982,2.7537,87.5060,272.6228,0,U,69399,999,92,-.89202274E+0,-.1838893E-1,0
DTC TEST OBJECT A,2026-128A,2026-06-11T23:08:10.362912,15.55810036,.00081505,54.9939,329.1555,265.6620,94.3485,0,U,69472,999,41,.3358222E-3,.23193E-3,0
DTC TEST OBJECT B,2026-128B,2026-06-11T16:57:46.267200,15.55972338,.0008173,55.0027,330.3416,268.8601,91.1498,0,U,69473,999,36,.4046219E-3,.28232E-3,0
TJS-25,2026-129A,2026-06-11T11:34:53.014656,1.72502163,.7751889,16.5302,30.5351,199.9639,91.9387,0,U,69474,999,7,.19774E-2,.7407E-4,0
